[{"nameEN":"Highstone","nameRU":null,"lat":50.28045902193932,"lng":-38.9783248875,"spellings":["Highstone"],"type":"Hill","minZoom":5},{"nameEN":"Whitewater","nameRU":null,"lat":-76.91573731306174,"lng":127.78448180624999,"spellings":["Whitewater"],"type":"Water Minor","minZoom":4},{"nameEN":"Régina Stream","nameRU":null,"lat":-76.55049661376998,"lng":32.096131903125006,"spellings":["Régina Stream"],"type":"Water Minor","minZoom":4},{"nameEN":"Îlot de l'Estrapade","nameRU":null,"lat":-79.47923133249807,"lng":-84.44579315625,"spellings":["Îlot de l'Estrapade"],"type":"Island","minZoom":4},{"nameEN":"Gravette","nameRU":null,"lat":36.51210861193522,"lng":-64.10359040625,"spellings":["Gravette"],"type":"Village","minZoom":3},{"nameEN":"Pennants Pass","nameRU":null,"lat":-73.90213603841129,"lng":54.298168931250004,"spellings":["Pennants Pass"],"type":"Generic","minZoom":4},{"nameEN":"Courbet","nameRU":null,"lat":-82.70542899232751,"lng":56.793905634375015,"spellings":["Courbet"],"type":"Local","minZoom":4},{"nameEN":"Huntsman's Heath","nameRU":null,"lat":-48.97124806377655,"lng":-103.67156525624999,"spellings":["Huntsman's Heath"],"type":"Generic","minZoom":4},{"nameEN":"Martin's Watch","nameRU":null,"lat":-77.83359398570063,"lng":41.93265839062503,"spellings":["Martin's Watch"],"type":"Local","minZoom":4},{"nameEN":"Cheval-Gin Lodge","nameRU":null,"lat":-72.5263566939227,"lng":99.072894290625,"spellings":["Cheval-Gin Lodge"],"type":"Local","minZoom":4},{"nameEN":"Tyrone Bay","nameRU":null,"lat":60.53384641074464,"lng":-8.629458609375005,"spellings":["Tyrone Bay"],"type":"Sea Minor","minZoom":4},{"nameEN":"La Roue","nameRU":null,"lat":-83.49537707764354,"lng":71.877804553125,"spellings":["La Roue"],"type":"Local","minZoom":4},{"nameEN":"Industrial Compound","nameRU":null,"lat":77.26639839617053,"lng":-38.158786012499995,"spellings":["Industrial Compound"],"type":"Generic","minZoom":4},{"nameEN":"Redon","nameRU":null,"lat":31.223488851975176,"lng":-117.46516111875,"spellings":["Redon"],"type":"Settlement","minZoom":3},{"nameEN":"Camurac","nameRU":null,"lat":-67.4604689069265,"lng":5.303897100000005,"spellings":["Camurac"],"type":"Settlement","minZoom":3},{"nameEN":"Perelle","nameRU":null,"lat":-34.93929843954544,"lng":83.08718263125003,"spellings":["Perelle"],"type":"Settlement","minZoom":3},{"nameEN":"Long Hill","nameRU":null,"lat":-23.032940933788783,"lng":-116.606895440625,"spellings":["Long Hill"],"type":"Hill","minZoom":5},{"nameEN":"The Scythe","nameRU":null,"lat":64.89236129823476,"lng":30.562481700000028,"spellings":["The Scythe"],"type":"Local","minZoom":4},{"nameEN":"Harbor","nameRU":null,"lat":-79.5588951099723,"lng":99.14326171875,"spellings":["Harbor"],"type":"Generic","minZoom":4},{"nameEN":"Montfort Castle","nameRU":null,"lat":-81.33152131849515,"lng":81.986682121875,"spellings":["Montfort Castle"],"type":"Ruin","minZoom":4},{"nameEN":"Sawmill","nameRU":null,"lat":-32.066015509374985,"lng":-93.6781059375,"spellings":["Sawmill"],"type":"Generic","minZoom":4},{"nameEN":"Les Creux","nameRU":null,"lat":80.04783013345971,"lng":-29.98586424374999,"spellings":["Les Creux"],"type":"Settlement","minZoom":3},{"nameEN":"Skua Point","nameRU":null,"lat":-28.716412919777998,"lng":90.93793030312499,"spellings":["Skua Point"],"type":"Local","minZoom":4},{"nameEN":"La Chalette","nameRU":null,"lat":-70.45898328255818,"lng":51.98422851562501,"spellings":["La Chalette"],"type":"Local","minZoom":4},{"nameEN":"Thollevast","nameRU":null,"lat":-75.97213496564933,"lng":-94.027079784375,"spellings":["Thollevast"],"type":"Local","minZoom":4},{"nameEN":"Fisherman's Bay","nameRU":null,"lat":10.191431971980704,"lng":41.245339978125,"spellings":["Fisherman's Bay"],"type":"Sea Major","minZoom":2},{"nameEN":"The Cascades","nameRU":null,"lat":-69.09949875714743,"lng":112.11641235000003,"spellings":["The Cascades"],"type":"Local","minZoom":4},{"nameEN":"Erquy","nameRU":null,"lat":81.54374729651889,"lng":127.08800353125001,"spellings":["Erquy"],"type":"Village","minZoom":3},{"nameEN":"Juniper Point","nameRU":null,"lat":83.1462477384984,"lng":-58.060601803124996,"spellings":["Juniper Point"],"type":"Local","minZoom":4},{"nameEN":"Crabapple Bay","nameRU":null,"lat":66.7204681155973,"lng":-67.45213394999999,"spellings":["Crabapple Bay"],"type":"Sea Minor","minZoom":4},{"nameEN":"Spaniard's Bay","nameRU":null,"lat":39.26463640373843,"lng":-95.21097336562501,"spellings":["Spaniard's Bay"],"type":"Sea Minor","minZoom":4},{"nameEN":"The Shallows","nameRU":null,"lat":-18.607764059692574,"lng":97.50322265625002,"spellings":["The Shallows"],"type":"Sea Minor","minZoom":4},{"nameEN":"Morton","nameRU":null,"lat":-55.58978943882279,"lng":-35.57143707187499,"spellings":["Morton"],"type":"Town","minZoom":1},{"nameEN":"Bonfire Hill","nameRU":null,"lat":-45.113811971598075,"lng":-29.368748475000004,"spellings":["Bonfire Hill"],"type":"Hill","minZoom":5},{"nameEN":"Levie","nameRU":null,"lat":-42.26419978563862,"lng":29.93742829687499,"spellings":["Levie"],"type":"Village","minZoom":3},{"nameEN":"Reed Pond","nameRU":null,"lat":-22.543102428245376,"lng":3.83157807187502,"spellings":["Reed Pond"],"type":"Water Minor","minZoom":4},{"nameEN":"Sainte-marguerite","nameRU":null,"lat":-57.22599109064404,"lng":86.27275085625003,"spellings":["Sainte-marguerite"],"type":"Hill","minZoom":5},{"nameEN":"Humboldt Hill","nameRU":null,"lat":21.62343509186789,"lng":-111.00105286875001,"spellings":["Humboldt Hill"],"type":"Hill","minZoom":5},{"nameEN":"Maiden's Bay","nameRU":null,"lat":77.06652557195713,"lng":-12.17973175312498,"spellings":["Maiden's Bay"],"type":"Sea Minor","minZoom":4},{"nameEN":"Laruns","nameRU":null,"lat":-23.477468057412935,"lng":32.578198256250005,"spellings":["Laruns"],"type":"Village","minZoom":3},{"nameEN":"Lechuc's Shelf","nameRU":null,"lat":-81.79946719208893,"lng":-97.23644713124999,"spellings":["Lechuc's Shelf"],"type":"Sea Minor","minZoom":4},{"nameEN":"Guillaume's Dip","nameRU":null,"lat":1.6049338051071436,"lng":-96.98759994375001,"spellings":["Guillaume's Dip"],"type":"Water Minor","minZoom":4},{"nameEN":"Meadow Stream ","nameRU":null,"lat":13.535168548848832,"lng":-102.06250076250001,"spellings":["Meadow Stream "],"type":"Water Minor","minZoom":4},{"nameEN":"Charlet Bay","nameRU":null,"lat":77.49445256604875,"lng":-67.372201546875,"spellings":["Charlet Bay"],"type":"Sea Minor","minZoom":4},{"nameEN":"Shepherd's Pond","nameRU":null,"lat":-40.59598803950695,"lng":-80.33200377187501,"spellings":["Shepherd's Pond"],"type":"Water Minor","minZoom":4},{"nameEN":"Tiller's Find","nameRU":null,"lat":15.850706326541784,"lng":-78.8316490125,"spellings":["Tiller's Find"],"type":"Local","minZoom":4},{"nameEN":"Alder Pond","nameRU":null,"lat":-18.950011914034086,"lng":-14.555030821874986,"spellings":["Alder Pond"],"type":"Water Minor","minZoom":4},{"nameEN":"Simon's Wood","nameRU":null,"lat":-31.99095601205024,"lng":-11.48549194687499,"spellings":["Simon's Wood"],"type":"Local","minZoom":4},{"nameEN":"Saint-Pierre","nameRU":null,"lat":-79.3885305580721,"lng":92.50361938125003,"spellings":["Saint-Pierre"],"type":"Town","minZoom":1},{"nameEN":"Goat Bay","nameRU":null,"lat":-56.45360105062703,"lng":-2.946203606250003,"spellings":["Goat Bay"],"type":"Sea Minor","minZoom":4},{"nameEN":"Fleet Bay","nameRU":null,"lat":-81.29101415111724,"lng":111.53084107499998,"spellings":["Fleet Bay"],"type":"Sea Minor","minZoom":4},{"nameEN":"Morton Stream","nameRU":null,"lat":-48.651347287607805,"lng":-52.753916925000006,"spellings":["Morton Stream"],"type":"Water Minor","minZoom":4},{"nameEN":"The Rushes","nameRU":null,"lat":41.896123589172184,"lng":1.8581588718749957,"spellings":["The Rushes"],"type":"Water Minor","minZoom":4},{"nameEN":"Morton Valley","nameRU":null,"lat":-43.93302135328361,"lng":-52.42819978125,"spellings":["Morton Valley"],"type":"Valley","minZoom":5},{"nameEN":"Île-aux-Saules","nameRU":null,"lat":-77.27057042368385,"lng":-97.90368806250001,"spellings":["Île-aux-Saules"],"type":"Island","minZoom":4},{"nameEN":"Isle d'Erquy","nameRU":null,"lat":80.41804397157843,"lng":135.80216673750002,"spellings":["Isle d'Erquy"],"type":"Island","minZoom":4},{"nameEN":"Isle d'Argent","nameRU":null,"lat":53.62670807925645,"lng":127.14021607499997,"spellings":["Isle d'Argent"],"type":"Island","minZoom":4},{"nameEN":"Gorey","nameRU":null,"lat":42.951748737253354,"lng":-43.88573913749999,"spellings":["Gorey"],"type":"Settlement","minZoom":3},{"nameEN":"Smuggler's Hole","nameRU":null,"lat":-70.70250654918321,"lng":122.15948180625001,"spellings":["Smuggler's Hole"],"type":"Local","minZoom":4},{"nameEN":"Aluette Pond","nameRU":null,"lat":34.26477554713587,"lng":-8.345928965625001,"spellings":["Aluette Pond"],"type":"Water Minor","minZoom":4},{"nameEN":"Northern Shoals","nameRU":null,"lat":82.76643096026422,"lng":-27.483494568749993,"spellings":["Northern Shoals"],"type":"Sea Minor","minZoom":4},{"nameEN":"Rockweed Cape","nameRU":null,"lat":-84.14553250479219,"lng":112.79127501562499,"spellings":["Rockweed Cape"],"type":"Local","minZoom":4},{"nameEN":"Montignac","nameRU":null,"lat":19.166845243973235,"lng":-45.74657593125,"spellings":["Montignac"],"type":"Town","minZoom":1},{"nameEN":"Upper Fields","nameRU":null,"lat":-21.27537512345236,"lng":-19.53374633437498,"spellings":["Upper Fields"],"type":"Local","minZoom":4},{"nameEN":"Spruce Hill","nameRU":null,"lat":-50.75291375994096,"lng":65.71159056562503,"spellings":["Spruce Hill"],"type":"Hill","minZoom":5},{"nameEN":"Quarry","nameRU":null,"lat":-55.541935227184425,"lng":68.61181640625001,"spellings":["Quarry"],"type":"Generic","minZoom":4},{"nameEN":"Helmsman's Sip","nameRU":null,"lat":84.00045696104239,"lng":-34.875192262499986,"spellings":["Helmsman's Sip"],"type":"Local","minZoom":4},{"nameEN":"Blackrock Bay","nameRU":null,"lat":8.474043004895154,"lng":-139.21351776562503,"spellings":["Blackrock Bay"],"type":"Sea Minor","minZoom":4},{"nameEN":"Stubwood Point","nameRU":null,"lat":-77.05850462698162,"lng":-2.415399159374986,"spellings":["Stubwood Point"],"type":"Local","minZoom":4},{"nameEN":"Hornbeam Valley","nameRU":null,"lat":30.20296821955304,"lng":-31.87944030937499,"spellings":["Hornbeam Valley"],"type":"Valley","minZoom":5},{"nameEN":"Calvary Hill","nameRU":null,"lat":-16.213276793836666,"lng":-81.3683509875,"spellings":["Calvary Hill"],"type":"Hill","minZoom":5},{"nameEN":"Gillnet Pond","nameRU":null,"lat":44.463239811972905,"lng":19.059974662499986,"spellings":["Gillnet Pond"],"type":"Water Minor","minZoom":4},{"nameEN":"Mill Pond","nameRU":null,"lat":-70.71002519790196,"lng":69.14451600000002,"spellings":["Mill Pond"],"type":"Water Minor","minZoom":4},{"nameEN":"Chotain","nameRU":null,"lat":-10.837527748478017,"lng":19.29743040937501,"spellings":["Chotain"],"type":"Village","minZoom":3},{"nameEN":"Power Plant","nameRU":null,"lat":68.51713294350166,"lng":-15.907983412499993,"spellings":["Power Plant"],"type":"Generic","minZoom":4},{"nameEN":"Île-aux-Pins","nameRU":null,"lat":80.56022642350653,"lng":-147.22889214375002,"spellings":["Île-aux-Pins"],"type":"Island","minZoom":4},{"nameEN":"Pinewood Lake","nameRU":null,"lat":-10.009600591580266,"lng":-57.816842653124986,"spellings":["Pinewood Lake"],"type":"Water Major","minZoom":3},{"nameEN":"Morton Bay","nameRU":null,"lat":-64.20200872029058,"lng":-33.35287170937498,"spellings":["Morton Bay"],"type":"Sea Minor","minZoom":4},{"nameEN":"Military Site","nameRU":null,"lat":8.543730962111665,"lng":29.450308218750013,"spellings":["Military Site"],"type":"Generic","minZoom":4},{"nameEN":"Lacourt","nameRU":null,"lat":-3.1953637983293928,"lng":-70.77560805,"spellings":["Lacourt"],"type":"Settlement","minZoom":3},{"nameEN":"Meaux","nameRU":null,"lat":64.98874371836908,"lng":-52.862338265625,"spellings":["Meaux"],"type":"Village","minZoom":3},{"nameEN":"Coalman's Brow","nameRU":null,"lat":73.07376354581326,"lng":-58.593740849999996,"spellings":["Coalman's Brow"],"type":"Local","minZoom":4},{"nameEN":"Pick Creek","nameRU":null,"lat":-76.52868982950349,"lng":112.57561341562503,"spellings":["Pick Creek"],"type":"Water Minor","minZoom":4},{"nameEN":"Moonstone Pond","nameRU":null,"lat":-26.316657856169726,"lng":-50.38861542187501,"spellings":["Moonstone Pond"],"type":"Water Minor","minZoom":4},{"nameEN":"Lamentin","nameRU":null,"lat":-12.815149038648366,"lng":-144.009310921875,"spellings":["Lamentin"],"type":"Town","minZoom":1},{"nameEN":"Provins","nameRU":null,"lat":-8.757631434836172,"lng":-25.69255830000002,"spellings":["Provins"],"type":"Village","minZoom":3},{"nameEN":"Crag Point","nameRU":null,"lat":-80.20856638363625,"lng":149.60061033749997,"spellings":["Crag Point"],"type":"Local","minZoom":4},{"nameEN":"Lacan's Head","nameRU":null,"lat":60.92442645532762,"lng":-22.42356263437498,"spellings":["Lacan's Head"],"type":"Hill","minZoom":5},{"nameEN":"Military Site","nameRU":null,"lat":43.90954827708798,"lng":34.644314587499984,"spellings":["Military Site"],"type":"Generic","minZoom":4},{"nameEN":"Kervel","nameRU":null,"lat":-50.922436849704646,"lng":-109.10393372812501,"spellings":["Kervel"],"type":"Settlement","minZoom":3},{"nameEN":"Sawmill","nameRU":null,"lat":-72.88934182181971,"lng":24.535546875,"spellings":["Sawmill"],"type":"Generic","minZoom":4},{"nameEN":"Farm","nameRU":null,"lat":-24.605408532011605,"lng":-94.73880844687501,"spellings":["Farm"],"type":"Generic","minZoom":4},{"nameEN":"Prow Peak","nameRU":null,"lat":-74.75298274080582,"lng":59.04146117812504,"spellings":["Prow Peak"],"type":"Hill","minZoom":5},{"nameEN":"Wolfstone","nameRU":null,"lat":-52.823877544822416,"lng":-73.324745184375,"spellings":["Wolfstone"],"type":"Local","minZoom":4},{"nameEN":"Wolf Hill","nameRU":null,"lat":-49.942276738326655,"lng":-71.60388795,"spellings":["Wolf Hill"],"type":"Hill","minZoom":5},{"nameEN":"Schooner's End","nameRU":null,"lat":44.64978068169502,"lng":41.941516106250006,"spellings":["Schooner's End"],"type":"Local","minZoom":4},{"nameEN":"Figari","nameRU":null,"lat":-28.60547824096046,"lng":-32.322258000000005,"spellings":["Figari"],"type":"Village","minZoom":3},{"nameEN":"Factory","nameRU":null,"lat":75.22135913342909,"lng":-52.40733946875002,"spellings":["Factory"],"type":"Generic","minZoom":4},{"nameEN":"Anchor Peninsula","nameRU":null,"lat":-77.58534763221151,"lng":155.81909179687503,"spellings":["Anchor Peninsula"],"type":"Local","minZoom":4},{"nameEN":"Kermovan","nameRU":null,"lat":67.22178671312044,"lng":-0.9173309343749991,"spellings":["Kermovan"],"type":"Settlement","minZoom":3},{"nameEN":"Military Site","nameRU":null,"lat":49.84995570693309,"lng":-70.260019678125,"spellings":["Military Site"],"type":"Generic","minZoom":4},{"nameEN":"Green Valley","nameRU":null,"lat":-62.33413776190338,"lng":63.05828248125,"spellings":["Green Valley"],"type":"Valley","minZoom":5},{"nameEN":"The Briars","nameRU":null,"lat":-34.400791082039824,"lng":-129.44790115312503,"spellings":["The Briars"],"type":"Generic","minZoom":4},{"nameEN":"Bell Pit Lake","nameRU":null,"lat":-72.48021308790615,"lng":107.22156373125,"spellings":["Bell Pit Lake"],"type":"Water Minor","minZoom":4},{"nameEN":"Black Lake","nameRU":null,"lat":-68.16328150145844,"lng":86.69404906875005,"spellings":["Black Lake"],"type":"Water Minor","minZoom":4},{"nameEN":"Greenwater","nameRU":null,"lat":-22.75416038293608,"lng":-42.511184690625015,"spellings":["Greenwater"],"type":"Water Minor","minZoom":4},{"nameEN":"Le Moule","nameRU":null,"lat":-27.589240729293287,"lng":-106.42607116875001,"spellings":["Le Moule"],"type":"Village","minZoom":3},{"nameEN":"Saint-Philippe","nameRU":null,"lat":76.6602491729889,"lng":-53.359991465625,"spellings":["Saint-Philippe"],"type":"City","minZoom":1},{"nameEN":"Industrial Compound","nameRU":null,"lat":12.395670781304881,"lng":-52.37221069687501,"spellings":["Industrial Compound"],"type":"Generic","minZoom":4},{"nameEN":"Old Wood","nameRU":null,"lat":-50.24117137639101,"lng":-77.11503525,"spellings":["Old Wood"],"type":"Ridge","minZoom":5},{"nameEN":"Landfill","nameRU":null,"lat":77.48952726214885,"lng":-30.083903493750007,"spellings":["Landfill"],"type":"Generic","minZoom":4},{"nameEN":"André's Beacon","nameRU":null,"lat":48.773496309455226,"lng":18.942997753125013,"spellings":["André's Beacon"],"type":"Local","minZoom":4},{"nameEN":"Villeneuve","nameRU":null,"lat":-1.692788029532878,"lng":-100.161955265625,"spellings":["Villeneuve"],"type":"Village","minZoom":3},{"nameEN":"Farm","nameRU":null,"lat":70.5600937075811,"lng":-40.47171021562501,"spellings":["Farm"],"type":"Generic","minZoom":4},{"nameEN":"Farm","nameRU":null,"lat":17.812685091383422,"lng":-35.607266240624995,"spellings":["Farm"],"type":"Generic","minZoom":4},{"nameEN":"Ore Ridge","nameRU":null,"lat":-73.10292801812139,"lng":122.08389586875006,"spellings":["Ore Ridge"],"type":"Ridge","minZoom":5},{"nameEN":"New Wood","nameRU":null,"lat":-5.501472576819845,"lng":-84.13878020625,"spellings":["New Wood"],"type":"Ridge","minZoom":5},{"nameEN":"Swell Mountain","nameRU":null,"lat":-78.34850726341185,"lng":65.40262756875002,"spellings":["Swell Mountain"],"type":"Hill","minZoom":5},{"nameEN":"Military Site","nameRU":null,"lat":82.39105971779692,"lng":-41.15348052187499,"spellings":["Military Site"],"type":"Generic","minZoom":4},{"nameEN":"Military Site","nameRU":null,"lat":75.08806489693131,"lng":-29.39521179374999,"spellings":["Military Site"],"type":"Generic","minZoom":4},{"nameEN":"Spring Pond","nameRU":null,"lat":74.80209570803375,"lng":-48.637147528125006,"spellings":["Spring Pond"],"type":"Water Minor","minZoom":4},{"nameEN":"Lancre","nameRU":null,"lat":-75.25158833303963,"lng":148.62590330625,"spellings":["Lancre"],"type":"Settlement","minZoom":3},{"nameEN":"Harbor","nameRU":null,"lat":-9.9827816573579,"lng":-151.19949532500002,"spellings":["Harbor"],"type":"Generic","minZoom":4},{"nameEN":"Corsair's Cove","nameRU":null,"lat":-78.54257434839019,"lng":149.68586424375005,"spellings":["Corsair's Cove"],"type":"Sea Minor","minZoom":4},{"nameEN":"Pick Mountain","nameRU":null,"lat":-74.79465065104371,"lng":99.93696899062503,"spellings":["Pick Mountain"],"type":"Hill","minZoom":5},{"nameEN":"Western Heights","nameRU":null,"lat":-64.88162262892811,"lng":37.79572907812499,"spellings":["Western Heights"],"type":"Ridge","minZoom":5},{"nameEN":"Birchwood Bay","nameRU":null,"lat":80.4560212379794,"lng":-59.35115205000002,"spellings":["Birchwood Bay"],"type":"Sea Minor","minZoom":4},{"nameEN":"Richemont","nameRU":null,"lat":-35.189600920973454,"lng":-80.42087632500001,"spellings":["Richemont"],"type":"Settlement","minZoom":3},{"nameEN":"Le Bosc","nameRU":null,"lat":-79.83889199689236,"lng":43.277687071875015,"spellings":["Le Bosc"],"type":"Settlement","minZoom":3},{"nameEN":"Ramtop Meadows","nameRU":null,"lat":36.697625779805655,"lng":-21.761238093749988,"spellings":["Ramtop Meadows"],"type":"Generic","minZoom":4},{"nameEN":"East Rise","nameRU":null,"lat":24.155500127609468,"lng":-5.022592171874992,"spellings":["East Rise"],"type":"Ridge","minZoom":5},{"nameEN":"Millstone Creek","nameRU":null,"lat":-75.06394433460311,"lng":75.05790710625003,"spellings":["Millstone Creek"],"type":"Water Minor","minZoom":4},{"nameEN":"Southern Gulf","nameRU":null,"lat":-71.20252154997468,"lng":-38.062147528125,"spellings":["Southern Gulf"],"type":"Sea Major","minZoom":2},{"nameEN":"Halcyon Strait","nameRU":null,"lat":-65.88293250566392,"lng":-101.04266053125,"spellings":["Halcyon Strait"],"type":"Sea Major","minZoom":2},{"nameEN":"Bénac","nameRU":null,"lat":19.397461728327038,"lng":5.044921875000016,"spellings":["Bénac"],"type":"Settlement","minZoom":3},{"nameEN":"Harbor","nameRU":null,"lat":81.88847050668684,"lng":119.89736938125006,"spellings":["Harbor"],"type":"Generic","minZoom":4},{"nameEN":"Harbor","nameRU":null,"lat":-57.69472482433426,"lng":-40.59011536875,"spellings":["Harbor"],"type":"Generic","minZoom":4},{"nameEN":"Airport","nameRU":null,"lat":81.87329182294383,"lng":-42.160720837499994,"spellings":["Airport"],"type":"Generic","minZoom":4},{"nameEN":"Harbor","nameRU":null,"lat":65.66649211787151,"lng":-58.86844025625,"spellings":["Harbor"],"type":"Local","minZoom":4},{"nameEN":"Perelle Bay","nameRU":null,"lat":-24.782458038625848,"lng":82.57846069687498,"spellings":["Perelle Bay"],"type":"Sea Minor","minZoom":4},{"nameEN":"Raccoon Rock","nameRU":null,"lat":35.03702433192304,"lng":-37.08573761249999,"spellings":["Raccoon Rock"],"type":"Local","minZoom":4},{"nameEN":"Farm","nameRU":null,"lat":-14.132913448992865,"lng":6.235221853125004,"spellings":["Farm"],"type":"Generic","minZoom":4},{"nameEN":"Cowbell Pond","nameRU":null,"lat":0.25056988878433495,"lng":-30.129524240624992,"spellings":["Cowbell Pond"],"type":"Water Minor","minZoom":4},{"nameEN":"Periwinkle Pond","nameRU":null,"lat":10.982636507751733,"lng":8.959130859375021,"spellings":["Periwinkle Pond"],"type":"Water Minor","minZoom":4},{"nameEN":"Tyrone","nameRU":null,"lat":60.14036975860642,"lng":-41.40059051250001,"spellings":["Tyrone"],"type":"Village","minZoom":3},{"nameEN":"Military Site","nameRU":null,"lat":-51.03537513043447,"lng":31.091679393750024,"spellings":["Military Site"],"type":"Generic","minZoom":4},{"nameEN":"Seagull Point","nameRU":null,"lat":-64.45201060259942,"lng":-12.112564078125017,"spellings":["Seagull Point"],"type":"Local","minZoom":4},{"nameEN":"Castle Ridge","nameRU":null,"lat":-77.83959082983966,"lng":61.159872431250015,"spellings":["Castle Ridge"],"type":"Ridge","minZoom":5},{"nameEN":"Harbor","nameRU":null,"lat":78.6194311842715,"lng":-56.32267455000001,"spellings":["Harbor"],"type":"Generic","minZoom":4},{"nameEN":"Entre-Deux","nameRU":null,"lat":17.59237376899425,"lng":-17.809085081249997,"spellings":["Entre-Deux"],"type":"Village","minZoom":3},{"nameEN":"La Valette","nameRU":null,"lat":-20.625227064481685,"lng":9.46827849375001,"spellings":["La Valette"],"type":"Settlement","minZoom":3},{"nameEN":"Tyrone Ridge","nameRU":null,"lat":55.12123646667486,"lng":-41.319703687499995,"spellings":["Tyrone Ridge"],"type":"Ridge","minZoom":5},{"nameEN":"Saint-Pierre's Pass","nameRU":null,"lat":-52.190620825923986,"lng":45.58748017500001,"spellings":["Saint-Pierre's Pass"],"type":"Generic","minZoom":4},{"nameEN":"Gibbet Cape","nameRU":null,"lat":-0.8611034439200115,"lng":-149.377725225,"spellings":["Gibbet Cape"],"type":"Local","minZoom":4},{"nameEN":"Durras","nameRU":null,"lat":-71.11204084276862,"lng":68.25511780312499,"spellings":["Durras"],"type":"Village","minZoom":3},{"nameEN":"Industrial Compound","nameRU":null,"lat":2.7474922629962384,"lng":1.7979125906249978,"spellings":["Industrial Compound"],"type":"Generic","minZoom":4},{"nameEN":"Vernon","nameRU":null,"lat":-76.33700373031247,"lng":79.97165220937504,"spellings":["Vernon"],"type":"Village","minZoom":3},{"nameEN":"Étoupe","nameRU":null,"lat":70.69465819704521,"lng":-28.396211231249996,"spellings":["Étoupe"],"type":"Settlement","minZoom":3},{"nameEN":"Régina","nameRU":null,"lat":-74.59584706636208,"lng":22.641270440625014,"spellings":["Régina"],"type":"Village","minZoom":3},{"nameEN":"Driftwood Sands","nameRU":null,"lat":34.56102900257918,"lng":-115.22568054375,"spellings":["Driftwood Sands"],"type":"Local","minZoom":4},{"nameEN":"Six Bells","nameRU":null,"lat":-20.963145197055997,"lng":24.359037778125014,"spellings":["Six Bells"],"type":"Hill","minZoom":5},{"nameEN":"Gallow's Hill","nameRU":null,"lat":73.78663485066399,"lng":-39.88444978125,"spellings":["Gallow's Hill"],"type":"Hill","minZoom":5},{"nameEN":"Hedgehog Hill","nameRU":null,"lat":65.10103176214699,"lng":-38.54050599374998,"spellings":["Hedgehog Hill"],"type":"Hill","minZoom":5},{"nameEN":"Poacher's Hill","nameRU":null,"lat":25.703202347176468,"lng":-16.159240715624996,"spellings":["Poacher's Hill"],"type":"Hill","minZoom":5},{"nameEN":"Anchor Bay","nameRU":null,"lat":-72.40579982004687,"lng":141.05250548437502,"spellings":["Anchor Bay"],"type":"Sea Minor","minZoom":4},{"nameEN":"Saint-Philippe's Creek","nameRU":null,"lat":72.15288628409442,"lng":-49.173664865624986,"spellings":["Saint-Philippe's Creek"],"type":"Water Minor","minZoom":4},{"nameEN":"Old Man's Pond","nameRU":null,"lat":79.90135022506115,"lng":-36.039289865625,"spellings":["Old Man's Pond"],"type":"Water Minor","minZoom":4},{"nameEN":"Beacon Ridge","nameRU":null,"lat":-48.24410147477766,"lng":83.66220703125002,"spellings":["Beacon Ridge"],"type":"Ridge","minZoom":5},{"nameEN":"Sainte-marie","nameRU":null,"lat":-71.05559399822803,"lng":47.457984937499994,"spellings":["Sainte-marie"],"type":"Hill","minZoom":5},{"nameEN":"Boulder Cape","nameRU":null,"lat":67.18746824224232,"lng":8.69467620937501,"spellings":["Boulder Cape"],"type":"Local","minZoom":4}]